[ {
  "id" : 1,
  "street" : "kumaran",
  "city" : "Coimbatore",
  "postal_code" : 536432
}, {
  "id" : 51,
  "street" : "kumaran",
  "city" : "Coimbatore",
  "postal_code" : 452345
}, {
  "id" : 52,
  "street" : "kumaran",
  "city" : "Coimbatore",
  "postal_code" : 452346
}, {
  "id" : 53,
  "street" : "kumaran",
  "city" : "Coimbatore",
  "postal_code" : 452347
}, {
  "id" : 54,
  "street" : "kumaran",
  "city" : "Coimbatore",
  "postal_code" : 452348
}, {
  "id" : 55,
  "street" : "kumaran",
  "city" : "Coimbatore",
  "postal_code" : 452349
}, {
  "id" : 56,
  "street" : "kumaran",
  "city" : "Coimbatore",
  "postal_code" : 452350
}, {
  "id" : 57,
  "street" : "kumaran",
  "city" : "Coimbatore",
  "postal_code" : 452351
}, {
  "id" : 58,
  "street" : "kumaran",
  "city" : "Coimbatore",
  "postal_code" : 452352
}, {
  "id" : 59,
  "street" : "kumaran",
  "city" : "Coimbatore",
  "postal_code" : 452353
}, {
  "id" : 60,
  "street" : "kumaran",
  "city" : "Coimbatore",
  "postal_code" : 452354
}, {
  "id" : 61,
  "street" : "kumaran",
  "city" : "Coimbatore",
  "postal_code" : 452355
}, {
  "id" : 62,
  "street" : "kumaran",
  "city" : "Coimbatore",
  "postal_code" : 452356
}, {
  "id" : 63,
  "street" : "kumaran",
  "city" : "Coimbatore",
  "postal_code" : 452357
}, {
  "id" : 64,
  "street" : "kumaran",
  "city" : "Coimbatore",
  "postal_code" : 452358
}, {
  "id" : 65,
  "street" : "kumaran",
  "city" : "Coimbatore",
  "postal_code" : 452359
}, {
  "id" : 66,
  "street" : "kumaran",
  "city" : "Coimbatore",
  "postal_code" : 452345
}, {
  "id" : 67,
  "street" : "kumaran",
  "city" : "Coimbatore",
  "postal_code" : 452346
}, {
  "id" : 68,
  "street" : "kumaran",
  "city" : "Coimbatore",
  "postal_code" : 452347
}, {
  "id" : 69,
  "street" : "kumaran",
  "city" : "Coimbatore",
  "postal_code" : 452348
}, {
  "id" : 70,
  "street" : "kumaran",
  "city" : "Coimbatore",
  "postal_code" : 452349
}, {
  "id" : 71,
  "street" : "kumaran",
  "city" : "Coimbatore",
  "postal_code" : 452350
}, {
  "id" : 72,
  "street" : "kumaran",
  "city" : "Coimbatore",
  "postal_code" : 452351
}, {
  "id" : 73,
  "street" : "kumaran",
  "city" : "Coimbatore",
  "postal_code" : 452352
}, {
  "id" : 74,
  "street" : "kumaran",
  "city" : "Coimbatore",
  "postal_code" : 452353
}, {
  "id" : 75,
  "street" : "kumaran",
  "city" : "Coimbatore",
  "postal_code" : 452354
}, {
  "id" : 76,
  "street" : "kumaran",
  "city" : "Coimbatore",
  "postal_code" : 452355
}, {
  "id" : 77,
  "street" : "kumaran",
  "city" : "Coimbatore",
  "postal_code" : 452356
}, {
  "id" : 129,
  "street" : "kumaran",
  "city" : "Coimbatore",
  "postal_code" : 452345
}, {
  "id" : 131,
  "street" : "kumaran",
  "city" : "Coimbatore",
  "postal_code" : 452347
}, {
  "id" : 133,
  "street" : "kumaran",
  "city" : "Coimbatore",
  "postal_code" : 452349
}, {
  "id" : 135,
  "street" : "kumaran",
  "city" : "Coimbatore",
  "postal_code" : 452351
}, {
  "id" : 137,
  "street" : "kumaran",
  "city" : "Coimbatore",
  "postal_code" : 452353
}, {
  "id" : 139,
  "street" : "kumaran",
  "city" : "Coimbatore",
  "postal_code" : 452355
}, {
  "id" : 141,
  "street" : "kumaran",
  "city" : "Coimbatore",
  "postal_code" : 452357
}, {
  "id" : 143,
  "street" : "kumaran",
  "city" : "Coimbatore",
  "postal_code" : 452359
} ]